COMMENT,ORIGINATOR,NORAD_CAT_ID,OBJECT_NAME,OBJECT_TYPE,CLASSIFICATION_TYPE,INTLDES,EPOCH,EPOCH_MICROSECONDS,MEAN_MOTION,ECCENTRICITY,INCLINATION,RA_OF_ASC_NODE,ARG_OF_PERICENTER,MEAN_ANOMALY,EPHEMERIS_TYPE,ELEMENT_SET_NO,REV_AT_EPOCH,BSTAR,MEAN_MOTION_DOT,MEAN_MOTION_DDOT,FILE,TLE_LINE0,TLE_LINE1,TLE_LINE2,OBJECT_ID,OBJECT_NUMBER,SEMIMAJOR_AXIS,PERIOD,APOGEE,PERIGEE,DECAYED
"GENERATED VIA SPACETRACK.ORG API","18 SPCS","55092","SPACEBEE-166","PAYLOAD","U","23001CM","2023-01-18 19:13:19","926912","15.14065821","0.0018815","97.5021","80.6897","159.5295","200.6695","0","999","245","0.0014114","0.00025785","0","3754021","0 SPACEBEE-166","1 55092U 23001CM  23018.80092508  .00025785  00000-0  14114-2 0  9993","2 55092  97.5021  80.6897 0018815 159.5295 200.6695 15.14065821  2456","2023-001CM","55092","6901.953","95.108","536.804","510.832","0"
"GENERATED VIA SPACETRACK.ORG API","18 SPCS","55092","SPACEBEE-166","PAYLOAD","U","23001CM","2023-01-18 20:48:30","58848","15.14067162","0.0018815","97.5021","80.7549","159.2866","200.9132","0","999","246","0.001325","0.00024198","0","3754254","0 SPACEBEE-166","1 55092U 23001CM  23018.86701457  .00024198  00000-0  13250-2 0  9996","2 55092  97.5021  80.7549 0018815 159.2866 200.9132 15.14067162  2462","2023-001CM","55092","6901.949","95.108","536.800","510.828","0"
"GENERATED VIA SPACETRACK.ORG API","18 SPCS","55092","SPACEBEE-166","PAYLOAD","U","23001CM","2023-01-19 12:40:10","677504","15.14097324","0.0018841","97.5019","81.4058","157.2288","202.9783","0","999","256","0.001328","0.00024274","0","3754973","0 SPACEBEE-166","1 55092U 23001CM  23019.52790136  .00024274  00000-0  13280-2 0  9990","2 55092  97.5019  81.4058 0018841 157.2288 202.9783 15.14097324  2565","2023-001CM","55092","6901.857","95.106","536.726","510.719","0"
"GENERATED VIA SPACETRACK.ORG API","18 SPCS","55092","SPACEBEE-166","PAYLOAD","U","23001CM","2023-01-20 01:21:30","373920","15.14120909","0.0018826","97.5018","81.9267","155.3771","204.8363","0","999","264","0.0013419","0.00024546","0","3755467","0 SPACEBEE-166","1 55092U 23001CM  23020.05660155  .00024546  00000-0  13419-2 0  9993","2 55092  97.5018  81.9267 0018826 155.3771 204.8363 15.14120909  2640","2023-001CM","55092","6901.786","95.105","536.644","510.657","0"
"GENERATED VIA SPACETRACK.ORG API","18 SPCS","55092","SPACEBEE-166","PAYLOAD","U","23001CM","2023-01-20 07:42:09","949536","15.14130606","0.0018836","97.5017","82.1868","154.5526","205.6637","0","999","268","0.0011627","0.00021256","0","3755973","0 SPACEBEE-166","1 55092U 23001CM  23020.32094849  .00021256  00000-0  11627-2 0  9998","2 55092  97.5017  82.1868 0018836 154.5526 205.6637 15.14130606  2681","2023-001CM","55092","6901.756","95.104","536.621","510.621","0"
"GENERATED VIA SPACETRACK.ORG API","18 SPCS","55092","SPACEBEE-166","PAYLOAD","U","23001CM","2023-01-21 02:44:07","732896","15.14166066","0.0018888","97.5015","82.9686","151.8432","208.3825","0","999","280","0.0013007","0.00023819","0","3756623","0 SPACEBEE-166","1 55092U 23001CM  23021.11397839  .00023819  00000-0  13007-2 0  9992","2 55092  97.5015  82.9686 0018888 151.8432 208.3825 15.14166066  2800","2023-001CM","55092","6901.648","95.102","536.549","510.478","0"
"GENERATED VIA SPACETRACK.ORG API","18 SPCS","55092","SPACEBEE-166","PAYLOAD","U","23001CM","2023-01-22 12:02:30","3360","15.14225907","0.0019016","97.5009","84.3356","146.8651","213.3776","0","999","301","0.0011108","0.00020358","0","3757809","0 SPACEBEE-166","1 55092U 23001CM  23022.50173615  .00020358  00000-0  11108-2 0  9995","2 55092  97.5009  84.3356 0019016 146.8651 213.3776 15.14225907  3019","2023-001CM","55092","6901.467","95.098","536.455","510.208","0"
"GENERATED VIA SPACETRACK.ORG API","18 SPCS","55092","SPACEBEE-166","PAYLOAD","U","23001CM","2023-01-23 18:10:29","112960","15.14273654","0.0019111","97.5004","85.5727","142.4679","217.7891","0","999","320","0.001007","0.0001847","0","3759094","0 SPACEBEE-166","1 55092U 23001CM  23023.75728140  .00018470  00000-0  10070-2 0  9991","2 55092  97.5004  85.5727 0019111 142.4679 217.7891 15.14273654  3206","2023-001CM","55092","6901.322","95.095","536.376","509.997","0"
"GENERATED VIA SPACETRACK.ORG API","18 SPCS","55092","SPACEBEE-166","PAYLOAD","U","23001CM","2023-01-24 19:32:57","272064","15.14312481","0.0019154","97.4998","86.6144","139.0494","221.218","0","999","336","0.00096726","0.00017757","0","3760139","0 SPACEBEE-166","1 55092U 23001CM  23024.81455176  .00017757  00000-0  96726-3 0  9995","2 55092  97.4998  86.6144 0019154 139.0494 221.2180 15.14312481  3366","2023-001CM","55092","6901.204","95.093","536.287","509.850","0"
"GENERATED VIA SPACETRACK.ORG API","18 SPCS","55092","SPACEBEE-166","PAYLOAD","U","23001CM","2023-01-25 12:59:37","907808","15.14334388","0.0019139","97.4996","87.3307","136.7459","223.528","0","999","347","0.00085417","0.00015678","0","3761297","0 SPACEBEE-166","1 55092U 23001CM  23025.54141097  .00015678  00000-0  85417-3 0  9995","2 55092  97.4996  87.3307 0019139 136.7459 223.5280 15.14334388  3479","2023-001CM","55092","6901.137","95.091","536.210","509.794","0"
"GENERATED VIA SPACETRACK.ORG API","18 SPCS","55092","SPACEBEE-166","PAYLOAD","U","23001CM","2023-01-25 19:20:14","267616","15.14343712","0.0019124","97.4995","87.5911","135.8892","224.3869","0","999","351","0.00089664","0.00016467","0","3761360","0 SPACEBEE-166","1 55092U 23001CM  23025.80572069  .00016467  00000-0  89664-3 0  9996","2 55092  97.4995  87.5911 0019124 135.8892 224.3869 15.14343712  3514","2023-001CM","55092","6901.109","95.091","536.171","509.776","0"
"GENERATED VIA SPACETRACK.ORG API","18 SPCS","55092","SPACEBEE-166","PAYLOAD","U","23001CM","2023-01-26 03:15:59","491872","15.14357115","0.0019132","97.4994","87.9166","134.8572","225.4218","0","999","356","0.00098641","0.00018133","0","3761638","0 SPACEBEE-166","1 55092U 23001CM  23026.13610523  .00018133  00000-0  98641-3 0  9998","2 55092  97.4994  87.9166 0019132 134.8572 225.4218 15.14357115  3569","2023-001CM","55092","6901.068","95.090","536.136","509.730","0"
"GENERATED VIA SPACETRACK.ORG API","18 SPCS","55092","SPACEBEE-166","PAYLOAD","U","23001CM","2023-01-26 12:46:53","527008","15.14369505","0.0019134","97.4994","88.3075","133.6875","226.5946","0","999","362","0.0009826","0.00018069","0","3761951","0 SPACEBEE-166","1 55092U 23001CM  23026.53256397  .00018069  00000-0  98260-3 0  9992","2 55092  97.4994  88.3075 0019134 133.6875 226.5946 15.14369505  3621","2023-001CM","55092","6901.030","95.089","536.100","509.691","0"
"GENERATED VIA SPACETRACK.ORG API","18 SPCS","55092","SPACEBEE-166","PAYLOAD","U","23001CM","2023-01-27 04:38:22","914528","15.1438903","0.001915","97.4993","88.9585","131.6078","228.6799","0","999","372","0.00084324","0.000155","0","3762552","0 SPACEBEE-166","1 55092U 23001CM  23027.19332077  .00015500  00000-0  84324-3 0  9998","2 55092  97.4993  88.9585 0019150 131.6078 228.6799 15.14389030  3728","2023-001CM","55092","6900.971","95.088","536.051","509.621","0"
"GENERATED VIA SPACETRACK.ORG API","18 SPCS","55092","SPACEBEE-166","PAYLOAD","U","23001CM","2023-01-27 12:34:07","302432","15.14400858","0.0019152","97.4994","89.284","130.5228","229.7676","0","999","377","0.00090053","0.00016566","0","3762956","0 SPACEBEE-166","1 55092U 23001CM  23027.52369563  .00016566  00000-0  90053-3 0  9994","2 55092  97.4994  89.2840 0019152 130.5228 229.7676 15.14400858  3777","2023-001CM","55092","6900.935","95.087","536.017","509.583","0"
"GENERATED VIA SPACETRACK.ORG API","18 SPCS","55092","SPACEBEE-166","PAYLOAD","U","23001CM","2023-01-27 20:29:51","483840","15.14411457","0.0019156","97.4994","89.6097","129.4437","230.8493","0","999","382","0.00088492","0.00016282","0","3763218","0 SPACEBEE-166","1 55092U 23001CM  23027.85406810  .00016282  00000-0  88492-3 0  9996","2 55092  97.4994  89.6097 0019156 129.4437 230.8493 15.14411457  3821","2023-001CM","55092","6900.903","95.086","535.987","509.549","0"
"GENERATED VIA SPACETRACK.ORG API","18 SPCS","55092","SPACEBEE-166","PAYLOAD","U","23001CM","2023-01-28 10:46:10","513920","15.1442948","0.0019192","97.4996","90.1958","127.4696","232.8285","0","999","391","0.0008392","0.00015443","0","3763829","0 SPACEBEE-166","1 55092U 23001CM  23028.44873280  .00015443  00000-0  83920-3 0  9990","2 55092  97.4996  90.1958 0019192 127.4696 232.8285 15.14429480  3917","2023-001CM","55092","6900.848","95.085","535.957","509.469","0"
"GENERATED VIA SPACETRACK.ORG API","18 SPCS","55092","SPACEBEE-166","PAYLOAD","U","23001CM","2023-01-28 13:56:27","997440","15.14432663","0.0019201","97.4996","90.3261","127.0308","233.2684","0","999","393","0.00078079","0.00014363","0","3763924","0 SPACEBEE-166","1 55092U 23001CM  23028.58087960  .00014363  00000-0  78079-3 0  9996","2 55092  97.4996  90.3261 0019201 127.0308 233.2684 15.14432663  3930","2023-001CM","55092","6900.838","95.085","535.954","509.453","0"
"GENERATED VIA SPACETRACK.ORG API","18 SPCS","55092","SPACEBEE-166","PAYLOAD","U","23001CM","2023-01-28 20:17:02","889312","15.14439474","0.0019226","97.4998","90.5866","126.1464","234.1551","0","999","397","0.00073663","0.00013548","0","3764201","0 SPACEBEE-166","1 55092U 23001CM  23028.84517233  .00013548  00000-0  73663-3 0  9994","2 55092  97.4998  90.5866 0019226 126.1464 234.1551 15.14439474  3979","2023-001CM","55092","6900.818","95.085","535.950","509.415","0"
"GENERATED VIA SPACETRACK.ORG API","18 SPCS","55092","SPACEBEE-166","PAYLOAD","U","23001CM","2023-01-29 18:29:04","109280","15.14464162","0.0019309","97.5","91.4985","123.0648","237.2442","0","999","411","0.00065498","0.00012046","0","3764894","0 SPACEBEE-166","1 55092U 23001CM  23029.77018645  .00012046  00000-0  65498-3 0  9999","2 55092  97.5000  91.4985 0019309 123.0648 237.2442 15.14464162  4110","2023-001CM","55092","6900.743","95.083","535.932","509.283","0"
